{
  "type": "FeatureCollection",
  "features": [
    {
      "type": "Feature",
      "properties": {
        "norad_id": 30495,
        "name": "FENGYUN 1C DEB",
        "group": "fengyun-1c-debris",
        "lat": 35.07517295514636,
        "lon": 77.38252204366688,
        "alt_km": 1665.6096057386621,
        "timestamp": "2025-12-22T05:49:03.776291+00:00",
        "meta_object_name": "FENGYUN 1C DEB",
        "meta_object_id": "1999-025AHH",
        "meta_epoch": "2025-12-20T23:56:19.457952",
        "meta_mean_motion": 12.94414774,
        "meta_eccentricity": 0.05976213,
        "meta_inclination": 102.2602,
        "meta_ra_of_asc_node": 84.7699,
        "meta_arg_of_pericenter": 249.7981,
        "meta_mean_anomaly": 103.7903,
        "meta_ephemeris_type": 0,
        "meta_classification_type": "U",
        "meta_norad_cat_id": 30495,
        "meta_element_set_no": 999,
        "meta_rev_at_epoch": 88780,
        "meta_bstar": 0.002688562,
        "meta_mean_motion_dot": 1.631e-05,
        "meta_mean_motion_ddot": 0,
        "tle_line1": "1 30495U 99025AHH 25354.99744743  .00001631  00000+0  26886-2 0  9994",
        "tle_line2": "2 30495 102.2602  84.7699 0597621 249.7981 103.7903 12.94414774887806"
      },
      "geometry": {
        "type": "Point",
        "coordinates": [
          77.38252204366688,
          35.07517295514636
        ]
      }
    },
    {
      "type": "Feature",
      "properties": {
        "norad_id": 30496,
        "name": "FENGYUN 1C DEB",
        "group": "fengyun-1c-debris",
        "lat": -71.7063077633229,
        "lon": 55.3173565507513,
        "alt_km": 681.440010402679,
        "timestamp": "2025-12-22T05:49:03.776301+00:00",
        "meta_object_name": "FENGYUN 1C DEB",
        "meta_object_id": "1999-025AHJ",
        "meta_epoch": "2025-12-21T17:26:29.357088",
        "meta_mean_motion": 14.94371581,
        "meta_eccentricity": 0.0130046,
        "meta_inclination": 98.7845,
        "meta_ra_of_asc_node": 262.6291,
        "meta_arg_of_pericenter": 68.5001,
        "meta_mean_anomaly": 293.0024,
        "meta_ephemeris_type": 0,
        "meta_classification_type": "U",
        "meta_norad_cat_id": 30496,
        "meta_element_set_no": 999,
        "meta_rev_at_epoch": 1278,
        "meta_bstar": 0.00043141,
        "meta_mean_motion_dot": 5.413e-05,
        "meta_mean_motion_ddot": 0,
        "tle_line1": "1 30496U 99025AHJ 25355.72672867  .00005413  00000+0  43141-3 0  9990",
        "tle_line2": "2 30496  98.7845 262.6291 0130046  68.5001 293.0024 14.94371581 12788"
      },
      "geometry": {
        "type": "Point",
        "coordinates": [
          55.3173565507513,
          -71.7063077633229
        ]
      }
    },
    {
      "type": "Feature",
      "properties": {
        "norad_id": 30498,
        "name": "FENGYUN 1C DEB",
        "group": "fengyun-1c-debris",
        "lat": -60.30473749223799,
        "lon": -149.023555188723,
        "alt_km": 906.9237745441542,
        "timestamp": "2025-12-22T05:49:03.776311+00:00",
        "meta_object_name": "FENGYUN 1C DEB",
        "meta_object_id": "1999-025AHL",
        "meta_epoch": "2025-12-21T09:56:54.718944",
        "meta_mean_motion": 14.0611368,
        "meta_eccentricity": 0.01039693,
        "meta_inclination": 99.2381,
        "meta_ra_of_asc_node": 46.714,
        "meta_arg_of_pericenter": 132.2321,
        "meta_mean_anomaly": 239.7907,
        "meta_ephemeris_type": 0,
        "meta_classification_type": "U",
        "meta_norad_cat_id": 30498,
        "meta_element_set_no": 999,
        "meta_rev_at_epoch": 95891,
        "meta_bstar": 0.0012820954,
        "meta_mean_motion_dot": 2.166e-05,
        "meta_mean_motion_ddot": 0,
        "tle_line1": "1 30498U 99025AHL 25355.41452221  .00002166  00000+0  12821-2 0  9990",
        "tle_line2": "2 30498  99.2381  46.7140 0103969 132.2321 239.7907 14.06113680958911"
      },
      "geometry": {
        "type": "Point",
        "coordinates": [
          -149.023555188723,
          -60.30473749223799
        ]
      }
    },
    {
      "type": "Feature",
      "properties": {
        "norad_id": 30500,
        "name": "FENGYUN 1C DEB",
        "group": "fengyun-1c-debris",
        "lat": 32.85505152544043,
        "lon": 82.13367676307303,
        "alt_km": 779.4528885877371,
        "timestamp": "2025-12-22T05:49:03.776322+00:00",
        "meta_object_name": "FENGYUN 1C DEB",
        "meta_object_id": "1999-025AHN",
        "meta_epoch": "2025-12-20T23:35:55.754016",
        "meta_mean_motion": 14.25278458,
        "meta_eccentricity": 0.00637958,
        "meta_inclination": 99.0725,
        "meta_ra_of_asc_node": 86.7551,
        "meta_arg_of_pericenter": 92.7547,
        "meta_mean_anomaly": 324.3123,
        "meta_ephemeris_type": 0,
        "meta_classification_type": "U",
        "meta_norad_cat_id": 30500,
        "meta_element_set_no": 999,
        "meta_rev_at_epoch": 96799,
        "meta_bstar": 0.001602256,
        "meta_mean_motion_dot": 3.807e-05,
        "meta_mean_motion_ddot": 0,
        "tle_line1": "1 30500U 99025AHN 25354.98328419  .00003807  00000+0  16023-2 0  9997",
        "tle_line2": "2 30500  99.0725  86.7551 0063795  92.7547 324.3123 14.25278458967992"
      },
      "geometry": {
        "type": "Point",
        "coordinates": [
          82.13367676307303,
          32.85505152544043
        ]
      }
    },
    {
      "type": "Feature",
      "properties": {
        "norad_id": 30501,
        "name": "FENGYUN 1C DEB",
        "group": "fengyun-1c-debris",
        "lat": -14.316152951570693,
        "lon": -10.27836036885757,
        "alt_km": 840.5165462660243,
        "timestamp": "2025-12-22T05:49:03.776332+00:00",
        "meta_object_name": "FENGYUN 1C DEB",
        "meta_object_id": "1999-025AHP",
        "meta_epoch": "2025-12-19T22:33:08.390016",
        "meta_mean_motion": 14.25388409,
        "meta_eccentricity": 0.004063,
        "meta_inclination": 99.0839,
        "meta_ra_of_asc_node": 344.9981,
        "meta_arg_of_pericenter": 181.6968,
        "meta_mean_anomaly": 234.2134,
        "meta_ephemeris_type": 0,
        "meta_classification_type": "U",
        "meta_norad_cat_id": 30501,
        "meta_element_set_no": 999,
        "meta_rev_at_epoch": 97022,
        "meta_bstar": 0.0010657,
        "meta_mean_motion_dot": 2.488e-05,
        "meta_mean_motion_ddot": 0,
        "tle_line1": "1 30501U 99025AHP 25353.93968044  .00002488  00000+0  10657-2 0  9997",
        "tle_line2": "2 30501  99.0839 344.9981 0040630 181.6968 234.2134 14.25388409970222"
      },
      "geometry": {
        "type": "Point",
        "coordinates": [
          -10.27836036885757,
          -14.316152951570693
        ]
      }
    },
    {
      "type": "Feature",
      "properties": {
        "norad_id": 30503,
        "name": "FENGYUN 1C DEB",
        "group": "fengyun-1c-debris",
        "lat": -64.16663823459834,
        "lon": 0.5115332035641487,
        "alt_km": 839.6792905901757,
        "timestamp": "2025-12-22T05:49:03.776342+00:00",
        "meta_object_name": "FENGYUN 1C DEB",
        "meta_object_id": "1999-025AHR",
        "meta_epoch": "2025-12-21T20:14:06.946080",
        "meta_mean_motion": 14.16134275,
        "meta_eccentricity": 0.0008307,
        "meta_inclination": 99.204,
        "meta_ra_of_asc_node": 199.6658,
        "meta_arg_of_pericenter": 238.7758,
        "meta_mean_anomaly": 132.5357,
        "meta_ephemeris_type": 0,
        "meta_classification_type": "U",
        "meta_norad_cat_id": 30503,
        "meta_element_set_no": 999,
        "meta_rev_at_epoch": 97475,
        "meta_bstar": 0.00022423,
        "meta_mean_motion_dot": 3.96e-06,
        "meta_mean_motion_ddot": 0,
        "tle_line1": "1 30503U 99025AHR 25355.84313595  .00000396  00000+0  22423-3 0  9997",
        "tle_line2": "2 30503  99.2040 199.6658 0008307 238.7758 132.5357 14.16134275974751"
      },
      "geometry": {
        "type": "Point",
        "coordinates": [
          0.5115332035641487,
          -64.16663823459834
        ]
      }
    },
    {
      "type": "Feature",
      "properties": {
        "norad_id": 30504,
        "name": "FENGYUN 1C DEB",
        "group": "fengyun-1c-debris",
        "lat": -67.09470501973543,
        "lon": -159.47458904867722,
        "alt_km": 788.9296252191007,
        "timestamp": "2025-12-22T05:49:03.776353+00:00",
        "meta_object_name": "FENGYUN 1C DEB",
        "meta_object_id": "1999-025AHS",
        "meta_epoch": "2025-12-21T01:44:57.568992",
        "meta_mean_motion": 14.20513799,
        "meta_eccentricity": 0.01125381,
        "meta_inclination": 99.0243,
        "meta_ra_of_asc_node": 41.4256,
        "meta_arg_of_pericenter": 192.7134,
        "meta_mean_anomaly": 197.6009,
        "meta_ephemeris_type": 0,
        "meta_classification_type": "U",
        "meta_norad_cat_id": 30504,
        "meta_element_set_no": 999,
        "meta_rev_at_epoch": 97512,
        "meta_bstar": 0.00041208941,
        "meta_mean_motion_dot": 8.97e-06,
        "meta_mean_motion_ddot": 0,
        "tle_line1": "1 30504U 99025AHS 25355.07288853  .00000897  00000+0  41209-3 0  9990",
        "tle_line2": "2 30504  99.0243  41.4256 0112538 192.7134 197.6009 14.20513799975127"
      },
      "geometry": {
        "type": "Point",
        "coordinates": [
          -159.47458904867722,
          -67.09470501973543
        ]
      }
    }
  ]
}